ONEWEB-0684             
1 56720U 23068L   26113.98657546 -.00000179  00000+0 -50990-3 0  9996
2 56720  87.8956 269.9905 0002430  64.0512 296.0869 13.15548888142123
ONEWEB-0686             
1 56721U 23068M   26113.63827996  .00000169  00000+0  40963-3 0  9993
2 56721  87.9069 239.6320 0001550  95.3503 264.7805 13.16594275144535
ONEWEB-0694             
1 56722U 23068N   26113.64461444  .00000122  00000+0  28564-3 0  9999
2 56722  87.9090 239.5845 0001481 111.7500 248.3789 13.16594846144593
ONEWEB-0696             
1 56723U 23068P   26114.17196718  .00001416  00000+0  37263-2 0  9990
2 56723  87.8937 269.9963 0002307  87.6490 272.4904 13.15542657142269
ONEWEB-0703             
1 56724U 23068Q   26113.95330576  .00000225  00000+0  56430-3 0  9993
2 56724  87.8952 270.0210 0002618  92.3055 267.8375 13.15549205142121
ONEWEB-0721             
1 56725U 23068R   26114.19483643  .00000015  00000+0  85686-6 0  9990
2 56725  86.6723 102.7524 0001952  86.7499 273.3858 13.22465653150807
ONEWEB-0015             
1 61594U 24188A   26114.21505987  .00000549  00000+0  15143-2 0  9992
2 61594  87.8923  31.8236 0001848  97.1122 263.0217 13.11417150 77380
ONEWEB-0687             
1 61595U 24188B   26114.24015841  .00000100  00000+0  22549-3 0  9993
2 61595  87.9175  16.5984 0001385  91.0820 269.0471 13.17647553 78797
ONEWEB-0688             
1 61596U 24188C   26114.19291736  .00000066  00000+0  13567-3 0  9998
2 61596  87.9177  16.6074 0002116 115.9192 244.2158 13.17648263 78787
ONEWEB-0689             
1 61597U 24188D   26114.17266369 -.00000412  00000+0 -11996-2 0  9991
2 61597  87.8942  31.7804 0001491  75.7619 284.3675 13.11415501 77372
ONEWEB-0690             
1 61598U 24188E   26114.18283917 -.00000443  00000+0 -12865-2 0  9991
2 61598  87.8929  31.7947 0002527  76.8435 283.2975 13.11415473 77554
ONEWEB-0691             
1 61599U 24188F   26114.17775485 -.00000591  00000+0 -17034-2 0  9994
2 61599  87.8946  31.6993 0001720  91.6466 268.4859 13.11416033 77400
ONEWEB-0692             
1 61600U 24188G   26114.19809875 -.00000087  00000+0 -28210-3 0  9999
2 61600  87.8924  31.8192 0001720  52.0680 308.0603 13.11418796 77395
ONEWEB-0693             
1 61601U 24188H   26114.20473029  .00000015  00000+0  46996-5 0  9992
2 61601  87.9177  16.6266 0002614  82.2264 277.9165 13.17647833 78778
ONEWEB-0695             
1 61602U 24188J   26114.17435593 -.00000467  00000+0 -13536-2 0  9997
2 61602  87.8924  31.8153 0001433  63.5491 296.5784 13.11415800 77385
ONEWEB-0697             
1 61603U 24188K   26114.20658545  .00000365  00000+0  99360-3 0  9991
2 61603  87.8923  31.7991 0001826  53.2717 306.8578 13.11418638 77374
