[{"OBJECT_NAME":"ONEWEB-0684","OBJECT_ID":"2023-068L","EPOCH":"2026-04-23T23:40:40.119744","MEAN_MOTION":13.15548888,"ECCENTRICITY":0.000243,"INCLINATION":87.8956,"RA_OF_ASC_NODE":269.9905,"ARG_OF_PERICENTER":64.0512,"MEAN_ANOMALY":296.0869,"EPHEMERIS_TYPE":0,"CLASSIFICATION_TYPE":"U","NORAD_CAT_ID":56720,"ELEMENT_SET_NO":999,"REV_AT_EPOCH":14212,"BSTAR":-0.0005099,"MEAN_MOTION_DOT":-1.79e-06,"MEAN_MOTION_DDOT":0.0},{"OBJECT_NAME":"ONEWEB-0686","OBJECT_ID":"2023-068M","EPOCH":"2026-04-23T15:19:07.388544","MEAN_MOTION":13.16594275,"ECCENTRICITY":0.000155,"INCLINATION":87.9069,"RA_OF_ASC_NODE":239.632,"ARG_OF_PERICENTER":95.3503,"MEAN_ANOMALY":264.7805,"EPHEMERIS_TYPE":0,"CLASSIFICATION_TYPE":"U","NORAD_CAT_ID":56721,"ELEMENT_SET_NO":999,"REV_AT_EPOCH":14453,"BSTAR":0.00040963,"MEAN_MOTION_DOT":1.69e-06,"MEAN_MOTION_DDOT":0.0},{"OBJECT_NAME":"ONEWEB-0694","OBJECT_ID":"2023-068N","EPOCH":"2026-04-23T15:28:14.687616","MEAN_MOTION":13.16594846,"ECCENTRICITY":0.0001481,"INCLINATION":87.909,"RA_OF_ASC_NODE":239.5845,"ARG_OF_PERICENTER":111.75,"MEAN_ANOMALY":248.3789,"EPHEMERIS_TYPE":0,"CLASSIFICATION_TYPE":"U","NORAD_CAT_ID":56722,"ELEMENT_SET_NO":999,"REV_AT_EPOCH":14459,"BSTAR":0.00028564000000000004,"MEAN_MOTION_DOT":1.22e-06,"MEAN_MOTION_DDOT":0.0},{"OBJECT_NAME":"ONEWEB-0696","OBJECT_ID":"2023-068P","EPOCH":"2026-04-24T04:07:37.964352","MEAN_MOTION":13.15542657,"ECCENTRICITY":0.0002307,"INCLINATION":87.8937,"RA_OF_ASC_NODE":269.9963,"ARG_OF_PERICENTER":87.649,"MEAN_ANOMALY":272.4904,"EPHEMERIS_TYPE":0,"CLASSIFICATION_TYPE":"U","NORAD_CAT_ID":56723,"ELEMENT_SET_NO":999,"REV_AT_EPOCH":14226,"BSTAR":0.0037263,"MEAN_MOTION_DOT":1.416e-05,"MEAN_MOTION_DDOT":0.0},{"OBJECT_NAME":"ONEWEB-0703","OBJECT_ID":"2023-068Q","EPOCH":"2026-04-23T22:52:45.617664","MEAN_MOTION":13.15549205,"ECCENTRICITY":0.0002618,"INCLINATION":87.8952,"RA_OF_ASC_NODE":270.021,"ARG_OF_PERICENTER":92.3055,"MEAN_ANOMALY":267.8375,"EPHEMERIS_TYPE":0,"CLASSIFICATION_TYPE":"U","NORAD_CAT_ID":56724,"ELEMENT_SET_NO":999,"REV_AT_EPOCH":14212,"BSTAR":0.0005643,"MEAN_MOTION_DOT":2.25e-06,"MEAN_MOTION_DDOT":0.0},{"OBJECT_NAME":"ONEWEB-0721","OBJECT_ID":"2023-068R","EPOCH":"2026-04-24T04:40:33.867552","MEAN_MOTION":13.22465653,"ECCENTRICITY":0.0001952,"INCLINATION":86.6723,"RA_OF_ASC_NODE":102.7524,"ARG_OF_PERICENTER":86.7499,"MEAN_ANOMALY":273.3858,"EPHEMERIS_TYPE":0,"CLASSIFICATION_TYPE":"U","NORAD_CAT_ID":56725,"ELEMENT_SET_NO":999,"REV_AT_EPOCH":15080,"BSTAR":8.5686e-07,"MEAN_MOTION_DOT":1.5e-07,"MEAN_MOTION_DDOT":0.0},{"OBJECT_NAME":"ONEWEB-0015","OBJECT_ID":"2024-188A","EPOCH":"2026-04-24T05:09:41.172768","MEAN_MOTION":13.1141715,"ECCENTRICITY":0.0001848,"INCLINATION":87.8923,"RA_OF_ASC_NODE":31.8236,"ARG_OF_PERICENTER":97.1122,"MEAN_ANOMALY":263.0217,"EPHEMERIS_TYPE":0,"CLASSIFICATION_TYPE":"U","NORAD_CAT_ID":61594,"ELEMENT_SET_NO":999,"REV_AT_EPOCH":7738,"BSTAR":0.0015143,"MEAN_MOTION_DOT":5.49e-06,"MEAN_MOTION_DDOT":0.0},{"OBJECT_NAME":"ONEWEB-0687","OBJECT_ID":"2024-188B","EPOCH":"2026-04-24T05:45:49.686624","MEAN_MOTION":13.17647553,"ECCENTRICITY":0.0001385,"INCLINATION":87.9175,"RA_OF_ASC_NODE":16.5984,"ARG_OF_PERICENTER":91.082,"MEAN_ANOMALY":269.0471,"EPHEMERIS_TYPE":0,"CLASSIFICATION_TYPE":"U","NORAD_CAT_ID":61595,"ELEMENT_SET_NO":999,"REV_AT_EPOCH":7879,"BSTAR":0.00022549,"MEAN_MOTION_DOT":1e-06,"MEAN_MOTION_DDOT":0.0},{"OBJECT_NAME":"ONEWEB-0688","OBJECT_ID":"2024-188C","EPOCH":"2026-04-24T04:37:48.059904","MEAN_MOTION":13.17648263,"ECCENTRICITY":0.0002116,"INCLINATION":87.9177,"RA_OF_ASC_NODE":16.6074,"ARG_OF_PERICENTER":115.9192,"MEAN_ANOMALY":244.2158,"EPHEMERIS_TYPE":0,"CLASSIFICATION_TYPE":"U","NORAD_CAT_ID":61596,"ELEMENT_SET_NO":999,"REV_AT_EPOCH":7878,"BSTAR":0.00013567,"MEAN_MOTION_DOT":6.6e-07,"MEAN_MOTION_DDOT":0.0},{"OBJECT_NAME":"ONEWEB-0689","OBJECT_ID":"2024-188D","EPOCH":"2026-04-24T04:08:38.142816","MEAN_MOTION":13.11415501,"ECCENTRICITY":0.0001491,"INCLINATION":87.8942,"RA_OF_ASC_NODE":31.7804,"ARG_OF_PERICENTER":75.7619,"MEAN_ANOMALY":284.3675,"EPHEMERIS_TYPE":0,"CLASSIFICATION_TYPE":"U","NORAD_CAT_ID":61597,"ELEMENT_SET_NO":999,"REV_AT_EPOCH":7737,"BSTAR":-0.0011996,"MEAN_MOTION_DOT":-4.12e-06,"MEAN_MOTION_DDOT":0.0},{"OBJECT_NAME":"ONEWEB-0690","OBJECT_ID":"2024-188E","EPOCH":"2026-04-24T04:23:17.304288","MEAN_MOTION":13.11415473,"ECCENTRICITY":0.0002527,"INCLINATION":87.8929,"RA_OF_ASC_NODE":31.7947,"ARG_OF_PERICENTER":76.8435,"MEAN_ANOMALY":283.2975,"EPHEMERIS_TYPE":0,"CLASSIFICATION_TYPE":"U","NORAD_CAT_ID":61598,"ELEMENT_SET_NO":999,"REV_AT_EPOCH":7755,"BSTAR":-0.0012864999999999999,"MEAN_MOTION_DOT":-4.43e-06,"MEAN_MOTION_DDOT":0.0},{"OBJECT_NAME":"ONEWEB-0691","OBJECT_ID":"2024-188F","EPOCH":"2026-04-24T04:15:58.019040","MEAN_MOTION":13.11416033,"ECCENTRICITY":0.000172,"INCLINATION":87.8946,"RA_OF_ASC_NODE":31.6993,"ARG_OF_PERICENTER":91.6466,"MEAN_ANOMALY":268.4859,"EPHEMERIS_TYPE":0,"CLASSIFICATION_TYPE":"U","NORAD_CAT_ID":61599,"ELEMENT_SET_NO":999,"REV_AT_EPOCH":7740,"BSTAR":-0.0017033999999999999,"MEAN_MOTION_DOT":-5.91e-06,"MEAN_MOTION_DDOT":0.0},{"OBJECT_NAME":"ONEWEB-0692","OBJECT_ID":"2024-188G","EPOCH":"2026-04-24T04:45:15.732000","MEAN_MOTION":13.11418796,"ECCENTRICITY":0.000172,"INCLINATION":87.8924,"RA_OF_ASC_NODE":31.8192,"ARG_OF_PERICENTER":52.068,"MEAN_ANOMALY":308.0603,"EPHEMERIS_TYPE":0,"CLASSIFICATION_TYPE":"U","NORAD_CAT_ID":61600,"ELEMENT_SET_NO":999,"REV_AT_EPOCH":7739,"BSTAR":-0.0002821,"MEAN_MOTION_DOT":-8.7e-07,"MEAN_MOTION_DDOT":0.0},{"OBJECT_NAME":"ONEWEB-0693","OBJECT_ID":"2024-188H","EPOCH":"2026-04-24T04:54:48.697056","MEAN_MOTION":13.17647833,"ECCENTRICITY":0.0002614,"INCLINATION":87.9177,"RA_OF_ASC_NODE":16.6266,"ARG_OF_PERICENTER":82.2264,"MEAN_ANOMALY":277.9165,"EPHEMERIS_TYPE":0,"CLASSIFICATION_TYPE":"U","NORAD_CAT_ID":61601,"ELEMENT_SET_NO":999,"REV_AT_EPOCH":7877,"BSTAR":4.6996e-06,"MEAN_MOTION_DOT":1.5e-07,"MEAN_MOTION_DDOT":0.0},{"OBJECT_NAME":"ONEWEB-0695","OBJECT_ID":"2024-188J","EPOCH":"2026-04-24T04:11:04.352352","MEAN_MOTION":13.114158,"ECCENTRICITY":0.0001433,"INCLINATION":87.8924,"RA_OF_ASC_NODE":31.8153,"ARG_OF_PERICENTER":63.5491,"MEAN_ANOMALY":296.5784,"EPHEMERIS_TYPE":0,"CLASSIFICATION_TYPE":"U","NORAD_CAT_ID":61602,"ELEMENT_SET_NO":999,"REV_AT_EPOCH":7738,"BSTAR":-0.0013536000000000002,"MEAN_MOTION_DOT":-4.67e-06,"MEAN_MOTION_DDOT":0.0},{"OBJECT_NAME":"ONEWEB-0697","OBJECT_ID":"2024-188K","EPOCH":"2026-04-24T04:57:28.982880","MEAN_MOTION":13.11418638,"ECCENTRICITY":0.0001826,"INCLINATION":87.8923,"RA_OF_ASC_NODE":31.7991,"ARG_OF_PERICENTER":53.2717,"MEAN_ANOMALY":306.8578,"EPHEMERIS_TYPE":0,"CLASSIFICATION_TYPE":"U","NORAD_CAT_ID":61603,"ELEMENT_SET_NO":999,"REV_AT_EPOCH":7737,"BSTAR":0.0009936,"MEAN_MOTION_DOT":3.65e-06,"MEAN_MOTION_DDOT":0.0}]